STARLINK-3703           
1 52101U 22029P   25302.31924583  .00000679  00000+0  60770-4 0  9996
2 52101  53.2181 319.0558 0001383  81.6253 278.4896 15.08842619200811
STARLINK-3709           
1 52102U 22029Q   25302.31006559  .00004516  00000+0  30168-3 0  9992
2 52102  53.2165 308.9078 0001412  96.1566 263.9587 15.08832606200955
STARLINK-3705           
1 52103U 22029R   25302.28334225 -.00003641  00000+0 -21076-3 0  9991
2 52103  53.2164 309.0263 0001428  96.1219 263.9936 15.08842430200948
STARLINK-3706           
1 52105U 22029T   25302.47565655  .00002044  00000+0  14644-3 0  9994
2 52105  53.2173 308.1638 0001403  86.6037 273.5115 15.08846599200970
STARLINK-3670           
1 52106U 22029U   25302.36338653  .00001234  00000+0  95616-4 0  9998
2 52106  53.2176 318.6669 0001530  93.9735 266.1432 15.08842527200822
STARLINK-3658           
1 52107U 22029V   25302.33854564 -.00000628  00000+0 -21375-4 0  9999
2 52107  53.2175 308.7817 0001563  84.3441 275.7730 15.08825966200950
STARLINK-3698           
1 52108U 22029W   25302.34590478  .00000387  00000+0  42409-4 0  9993
2 52108  53.2176 308.7466 0001471  87.6624 272.4537 15.08841626200959
STARLINK-3687           
1 52110U 22029Y   25302.34222590  .00001117  00000+0  88229-4 0  9995
2 52110  53.2177 308.7615 0001169  78.9800 281.1324 15.08843358200957
STARLINK-3708           
1 52111U 22029Z   25302.32750847  .00003676  00000+0  24897-3 0  9997
2 52111  53.2178 308.8319 0001421  97.4573 262.6580 15.08831869200957
STARLINK-3734           
1 52112U 22029AA  25302.33487704  .00002236  00000+0  15853-3 0  9991
2 52112  53.2182 308.7985 0001576 101.6352 258.4817 15.08842452200951
STARLINK-3736           
1 52113U 22029AB  25302.32014780 -.00000113  00000+0  11018-4 0  9994
2 52113  53.2172 308.8617 0001647  92.5590 267.5590 15.08835616200958
STARLINK-3737           
1 52114U 22029AC  25302.33118855  .00000499  00000+0  49432-4 0  9991
2 52114  53.2171 308.8144 0001406  94.3967 265.7185 15.08836270200951
STARLINK-3685           
1 52115U 22029AD  25302.24654503  .00000062  00000+0  21995-4 0  9997
2 52115  53.2173 309.1897 0001359  91.7669 268.3479 15.08836280200945
STARLINK-3735           
1 52116U 22029AE  25302.32382903 -.00000053  00000+0  14770-4 0  9993
2 52116  53.2172 308.8450 0001326  84.2524 275.8619 15.08834423200954
STARLINK-3738           
1 52117U 22029AF  25302.30542581  .00002116  00000+0  15093-3 0  9991
2 52117  53.2174 308.9277 0001578  89.2366 270.8807 15.08850277200963
STARLINK-3743           
1 52118U 22029AG  25302.51518902 -.00000541  00000+0 -15904-4 0  9999
2 52118  53.2170 307.9844 0001286  94.8878 265.2261 15.08844635200980
STARLINK-3558           
1 52119U 22029AH  25302.29808829 -.00002050  00000+0 -11078-3 0  9999
2 52119  53.2174 308.9602 0001515  85.6082 274.5083 15.08819909200956
