[{"OBJECT_NAME":"STARLINK-3703","OBJECT_ID":"2022-029P","EPOCH":"2025-10-29T07:39:42.839712","MEAN_MOTION":15.08842619,"ECCENTRICITY":0.0001383,"INCLINATION":53.2181,"RA_OF_ASC_NODE":319.0558,"ARG_OF_PERICENTER":81.6253,"MEAN_ANOMALY":278.4896,"EPHEMERIS_TYPE":0,"CLASSIFICATION_TYPE":"U","NORAD_CAT_ID":52101,"ELEMENT_SET_NO":999,"REV_AT_EPOCH":20081,"BSTAR":6.077e-5,"MEAN_MOTION_DOT":6.79e-6,"MEAN_MOTION_DDOT":0},{"OBJECT_NAME":"STARLINK-3709","OBJECT_ID":"2022-029Q","EPOCH":"2025-10-29T07:26:29.666976","MEAN_MOTION":15.08832606,"ECCENTRICITY":0.0001412,"INCLINATION":53.2165,"RA_OF_ASC_NODE":308.9078,"ARG_OF_PERICENTER":96.1566,"MEAN_ANOMALY":263.9587,"EPHEMERIS_TYPE":0,"CLASSIFICATION_TYPE":"U","NORAD_CAT_ID":52102,"ELEMENT_SET_NO":999,"REV_AT_EPOCH":20095,"BSTAR":0.00030168,"MEAN_MOTION_DOT":4.516e-5,"MEAN_MOTION_DDOT":0},{"OBJECT_NAME":"STARLINK-3705","OBJECT_ID":"2022-029R","EPOCH":"2025-10-29T06:48:00.770400","MEAN_MOTION":15.0884243,"ECCENTRICITY":0.0001428,"INCLINATION":53.2164,"RA_OF_ASC_NODE":309.0263,"ARG_OF_PERICENTER":96.1219,"MEAN_ANOMALY":263.9936,"EPHEMERIS_TYPE":0,"CLASSIFICATION_TYPE":"U","NORAD_CAT_ID":52103,"ELEMENT_SET_NO":999,"REV_AT_EPOCH":20094,"BSTAR":-0.00021076,"MEAN_MOTION_DOT":-3.641e-5,"MEAN_MOTION_DDOT":0},{"OBJECT_NAME":"STARLINK-3706","OBJECT_ID":"2022-029T","EPOCH":"2025-10-29T11:24:56.725920","MEAN_MOTION":15.08846599,"ECCENTRICITY":0.0001403,"INCLINATION":53.2173,"RA_OF_ASC_NODE":308.1638,"ARG_OF_PERICENTER":86.6037,"MEAN_ANOMALY":273.5115,"EPHEMERIS_TYPE":0,"CLASSIFICATION_TYPE":"U","NORAD_CAT_ID":52105,"ELEMENT_SET_NO":999,"REV_AT_EPOCH":20097,"BSTAR":0.00014644,"MEAN_MOTION_DOT":2.044e-5,"MEAN_MOTION_DDOT":0},{"OBJECT_NAME":"STARLINK-3670","OBJECT_ID":"2022-029U","EPOCH":"2025-10-29T08:43:16.596192","MEAN_MOTION":15.08842527,"ECCENTRICITY":0.000153,"INCLINATION":53.2176,"RA_OF_ASC_NODE":318.6669,"ARG_OF_PERICENTER":93.9735,"MEAN_ANOMALY":266.1432,"EPHEMERIS_TYPE":0,"CLASSIFICATION_TYPE":"U","NORAD_CAT_ID":52106,"ELEMENT_SET_NO":999,"REV_AT_EPOCH":20082,"BSTAR":9.5616e-5,"MEAN_MOTION_DOT":1.234e-5,"MEAN_MOTION_DDOT":0},{"OBJECT_NAME":"STARLINK-3658","OBJECT_ID":"2022-029V","EPOCH":"2025-10-29T08:07:30.343296","MEAN_MOTION":15.08825966,"ECCENTRICITY":0.0001563,"INCLINATION":53.2175,"RA_OF_ASC_NODE":308.7817,"ARG_OF_PERICENTER":84.3441,"MEAN_ANOMALY":275.773,"EPHEMERIS_TYPE":0,"CLASSIFICATION_TYPE":"U","NORAD_CAT_ID":52107,"ELEMENT_SET_NO":999,"REV_AT_EPOCH":20095,"BSTAR":-2.1375e-5,"MEAN_MOTION_DOT":-6.28e-6,"MEAN_MOTION_DDOT":0},{"OBJECT_NAME":"STARLINK-3698","OBJECT_ID":"2022-029W","EPOCH":"2025-10-29T08:18:06.172992","MEAN_MOTION":15.08841626,"ECCENTRICITY":0.0001471,"INCLINATION":53.2176,"RA_OF_ASC_NODE":308.7466,"ARG_OF_PERICENTER":87.6624,"MEAN_ANOMALY":272.4537,"EPHEMERIS_TYPE":0,"CLASSIFICATION_TYPE":"U","NORAD_CAT_ID":52108,"ELEMENT_SET_NO":999,"REV_AT_EPOCH":20095,"BSTAR":4.2409e-5,"MEAN_MOTION_DOT":3.87e-6,"MEAN_MOTION_DDOT":0},{"OBJECT_NAME":"STARLINK-3687","OBJECT_ID":"2022-029Y","EPOCH":"2025-10-29T08:12:48.317760","MEAN_MOTION":15.08843358,"ECCENTRICITY":0.0001169,"INCLINATION":53.2177,"RA_OF_ASC_NODE":308.7615,"ARG_OF_PERICENTER":78.98,"MEAN_ANOMALY":281.1324,"EPHEMERIS_TYPE":0,"CLASSIFICATION_TYPE":"U","NORAD_CAT_ID":52110,"ELEMENT_SET_NO":999,"REV_AT_EPOCH":20095,"BSTAR":8.8229e-5,"MEAN_MOTION_DOT":1.117e-5,"MEAN_MOTION_DDOT":0},{"OBJECT_NAME":"STARLINK-3708","OBJECT_ID":"2022-029Z","EPOCH":"2025-10-29T07:51:36.731808","MEAN_MOTION":15.08831869,"ECCENTRICITY":0.0001421,"INCLINATION":53.2178,"RA_OF_ASC_NODE":308.8319,"ARG_OF_PERICENTER":97.4573,"MEAN_ANOMALY":262.658,"EPHEMERIS_TYPE":0,"CLASSIFICATION_TYPE":"U","NORAD_CAT_ID":52111,"ELEMENT_SET_NO":999,"REV_AT_EPOCH":20095,"BSTAR":0.00024897,"MEAN_MOTION_DOT":3.676e-5,"MEAN_MOTION_DDOT":0},{"OBJECT_NAME":"STARLINK-3734","OBJECT_ID":"2022-029AA","EPOCH":"2025-10-29T08:02:13.376256","MEAN_MOTION":15.08842452,"ECCENTRICITY":0.0001576,"INCLINATION":53.2182,"RA_OF_ASC_NODE":308.7985,"ARG_OF_PERICENTER":101.6352,"MEAN_ANOMALY":258.4817,"EPHEMERIS_TYPE":0,"CLASSIFICATION_TYPE":"U","NORAD_CAT_ID":52112,"ELEMENT_SET_NO":999,"REV_AT_EPOCH":20095,"BSTAR":0.00015853,"MEAN_MOTION_DOT":2.236e-5,"MEAN_MOTION_DDOT":0},{"OBJECT_NAME":"STARLINK-3736","OBJECT_ID":"2022-029AB","EPOCH":"2025-10-29T07:41:00.769920","MEAN_MOTION":15.08835616,"ECCENTRICITY":0.0001647,"INCLINATION":53.2172,"RA_OF_ASC_NODE":308.8617,"ARG_OF_PERICENTER":92.559,"MEAN_ANOMALY":267.559,"EPHEMERIS_TYPE":0,"CLASSIFICATION_TYPE":"U","NORAD_CAT_ID":52113,"ELEMENT_SET_NO":999,"REV_AT_EPOCH":20095,"BSTAR":1.1018e-5,"MEAN_MOTION_DOT":-1.13e-6,"MEAN_MOTION_DDOT":0},{"OBJECT_NAME":"STARLINK-3737","OBJECT_ID":"2022-029AC","EPOCH":"2025-10-29T07:56:54.690720","MEAN_MOTION":15.0883627,"ECCENTRICITY":0.0001406,"INCLINATION":53.2171,"RA_OF_ASC_NODE":308.8144,"ARG_OF_PERICENTER":94.3967,"MEAN_ANOMALY":265.7185,"EPHEMERIS_TYPE":0,"CLASSIFICATION_TYPE":"U","NORAD_CAT_ID":52114,"ELEMENT_SET_NO":999,"REV_AT_EPOCH":20095,"BSTAR":4.9432e-5,"MEAN_MOTION_DOT":4.99e-6,"MEAN_MOTION_DDOT":0},{"OBJECT_NAME":"STARLINK-3685","OBJECT_ID":"2022-029AD","EPOCH":"2025-10-29T05:55:01.490592","MEAN_MOTION":15.0883628,"ECCENTRICITY":0.0001359,"INCLINATION":53.2173,"RA_OF_ASC_NODE":309.1897,"ARG_OF_PERICENTER":91.7669,"MEAN_ANOMALY":268.3479,"EPHEMERIS_TYPE":0,"CLASSIFICATION_TYPE":"U","NORAD_CAT_ID":52115,"ELEMENT_SET_NO":999,"REV_AT_EPOCH":20094,"BSTAR":2.1995e-5,"MEAN_MOTION_DOT":6.2e-7,"MEAN_MOTION_DDOT":0},{"OBJECT_NAME":"STARLINK-3735","OBJECT_ID":"2022-029AE","EPOCH":"2025-10-29T07:46:18.828192","MEAN_MOTION":15.08834423,"ECCENTRICITY":0.0001326,"INCLINATION":53.2172,"RA_OF_ASC_NODE":308.845,"ARG_OF_PERICENTER":84.2524,"MEAN_ANOMALY":275.8619,"EPHEMERIS_TYPE":0,"CLASSIFICATION_TYPE":"U","NORAD_CAT_ID":52116,"ELEMENT_SET_NO":999,"REV_AT_EPOCH":20095,"BSTAR":1.477e-5,"MEAN_MOTION_DOT":-5.3e-7,"MEAN_MOTION_DDOT":0},{"OBJECT_NAME":"STARLINK-3738","OBJECT_ID":"2022-029AF","EPOCH":"2025-10-29T07:19:48.789984","MEAN_MOTION":15.08850277,"ECCENTRICITY":0.0001578,"INCLINATION":53.2174,"RA_OF_ASC_NODE":308.9277,"ARG_OF_PERICENTER":89.2366,"MEAN_ANOMALY":270.8807,"EPHEMERIS_TYPE":0,"CLASSIFICATION_TYPE":"U","NORAD_CAT_ID":52117,"ELEMENT_SET_NO":999,"REV_AT_EPOCH":20096,"BSTAR":0.00015093,"MEAN_MOTION_DOT":2.116e-5,"MEAN_MOTION_DDOT":0},{"OBJECT_NAME":"STARLINK-3743","OBJECT_ID":"2022-029AG","EPOCH":"2025-10-29T12:21:52.331328","MEAN_MOTION":15.08844635,"ECCENTRICITY":0.0001286,"INCLINATION":53.217,"RA_OF_ASC_NODE":307.9844,"ARG_OF_PERICENTER":94.8878,"MEAN_ANOMALY":265.2261,"EPHEMERIS_TYPE":0,"CLASSIFICATION_TYPE":"U","NORAD_CAT_ID":52118,"ELEMENT_SET_NO":999,"REV_AT_EPOCH":20098,"BSTAR":-1.5904e-5,"MEAN_MOTION_DOT":-5.41e-6,"MEAN_MOTION_DDOT":0},{"OBJECT_NAME":"STARLINK-3558","OBJECT_ID":"2022-029AH","EPOCH":"2025-10-29T07:09:14.828256","MEAN_MOTION":15.08819909,"ECCENTRICITY":0.0001515,"INCLINATION":53.2174,"RA_OF_ASC_NODE":308.9602,"ARG_OF_PERICENTER":85.6082,"MEAN_ANOMALY":274.5083,"EPHEMERIS_TYPE":0,"CLASSIFICATION_TYPE":"U","NORAD_CAT_ID":52119,"ELEMENT_SET_NO":999,"REV_AT_EPOCH":20095,"BSTAR":-0.00011078,"MEAN_MOTION_DOT":-2.05e-5,"MEAN_MOTION_DDOT":0}]
